{"type": "FeatureCollection", "features": [ {"type": "Feature", "properties": {"norad_id": 30663, "name": "FENGYUN 1C DEB", "group": "fengyun-1c-debris", "lat": -57.89871599630251, "lon": -70.26391308748362, "alt_km": 1653.7982510913907, "timestamp": "2025-12-24T20:42:21.304552+00:00", "meta": {"OBJECT_NAME": "FENGYUN 1C DEB", "OBJECT_ID": "1999-025APV", "EPOCH": "2025-12-24T01:04:09.100128", "MEAN_MOTION": 13.23200529, "ECCENTRICITY": 0.06493351, "INCLINATION": 99.3035, "RA_OF_ASC_NODE": 273.8542, "ARG_OF_PERICENTER": 109.0934, "MEAN_ANOMALY": 258.1629, "EPHEMERIS_TYPE": 0, "CLASSIFICATION_TYPE": "U", "NORAD_CAT_ID": 30663, "ELEMENT_SET_NO": 999, "REV_AT_EPOCH": 89197, "BSTAR": 0.0030273132, "MEAN_MOTION_DOT": 3.943e-05, "MEAN_MOTION_DDOT": 0}, "tle": {"line1": "1 30663U 99025APV 25358.04454977  .00003943  00000+0  30273-2 0  9991", "line2": "2 30663  99.3035 273.8542 0649335 109.0934 258.1629 13.23200529891970"}}, "geometry": {"type": "Point", "coordinates": [-70.26391308748362, -57.89871599630251]}}, {"type": "Feature", "properties": {"norad_id": 30665, "name": "FENGYUN 1C DEB", "group": "fengyun-1c-debris", "lat": 72.82262963572477, "lon": -60.861397938335344, "alt_km": 846.0091347918824, "timestamp": "2025-12-24T20:42:21.304564+00:00", "meta": {"OBJECT_NAME": "FENGYUN 1C DEB", "OBJECT_ID": "1999-025APX", "EPOCH": "2025-12-20T21:16:17.931360", "MEAN_MOTION": 14.12381178, "ECCENTRICITY": 0.0067638, "INCLINATION": 99.2086, "RA_OF_ASC_NODE": 326.7083, "ARG_OF_PERICENTER": 179.169, "MEAN_ANOMALY": 209.6706, "EPHEMERIS_TYPE": 0, "CLASSIFICATION_TYPE": "U", "NORAD_CAT_ID": 30665, "ELEMENT_SET_NO": 999, "REV_AT_EPOCH": 96085, "BSTAR": 0.0010029, "MEAN_MOTION_DOT": 1.843e-05, "MEAN_MOTION_DDOT": 0}, "tle": {"line1": "1 30665U 99025APX 25354.88631865  .00001843  00000+0  10029-2 0  9998", "line2": "2 30665  99.2086 326.7083 0067638 179.1690 209.6706 14.12381178960852"}}, "geometry": {"type": "Point", "coordinates": [-60.861397938335344, 72.82262963572477]}}, {"type": "Feature", "properties": {"norad_id": 30666, "name": "FENGYUN 1C DEB", "group": "fengyun-1c-debris", "lat": 0.6682351875647828, "lon": 162.20186802934307, "alt_km": 871.0320761198909, "timestamp": "2025-12-24T20:42:21.304575+00:00", "meta": {"OBJECT_NAME": "FENGYUN 1C DEB", "OBJECT_ID": "1999-025APY", "EPOCH": "2025-12-24T04:45:04.080960", "MEAN_MOTION": 14.02565486, "ECCENTRICITY": 0.00614074, "INCLINATION": 98.8233, "RA_OF_ASC_NODE": 341.4542, "ARG_OF_PERICENTER": 112.704, "MEAN_ANOMALY": 311.059, "EPHEMERIS_TYPE": 0, "CLASSIFICATION_TYPE": "U", "NORAD_CAT_ID": 30666, "ELEMENT_SET_NO": 999, "REV_AT_EPOCH": 96271, "BSTAR": 0.00041106281, "MEAN_MOTION_DOT": 6.02e-06, "MEAN_MOTION_DDOT": 0}, "tle": {"line1": "1 30666U 99025APY 25358.19796390  .00000602  00000+0  41106-3 0  9995", "line2": "2 30666  98.8233 341.4542 0061407 112.7040 311.0590 14.02565486962717"}}, "geometry": {"type": "Point", "coordinates": [162.20186802934307, 0.6682351875647828]}}, {"type": "Feature", "properties": {"norad_id": 30668, "name": "FENGYUN 1C DEB", "group": "fengyun-1c-debris", "lat": 12.83358267369978, "lon": -105.75263290376643, "alt_km": 811.6183366060868, "timestamp": "2025-12-24T20:42:21.304585+00:00", "meta": {"OBJECT_NAME": "FENGYUN 1C DEB", "OBJECT_ID": "1999-025AQA", "EPOCH": "2025-12-24T04:44:52.001376", "MEAN_MOTION": 14.12397557, "ECCENTRICITY": 0.00799195, "INCLINATION": 99.1306, "RA_OF_ASC_NODE": 71.4705, "ARG_OF_PERICENTER": 214.4099, "MEAN_ANOMALY": 174.1057, "EPHEMERIS_TYPE": 0, "CLASSIFICATION_TYPE": "U", "NORAD_CAT_ID": 30668, "ELEMENT_SET_NO": 999, "REV_AT_EPOCH": 96217, "BSTAR": 0.001789001, "MEAN_MOTION_DOT": 3.355e-05, "MEAN_MOTION_DDOT": 0}, "tle": {"line1": "1 30668U 99025AQA 25358.19782409  .00003355  00000+0  17890-2 0  9993", "line2": "2 30668  99.1306  71.4705 0079919 214.4099 174.1057 14.12397557962175"}}, "geometry": {"type": "Point", "coordinates": [-105.75263290376643, 12.83358267369978]}}, {"type": "Feature", "properties": {"norad_id": 30669, "name": "FENGYUN 1C DEB", "group": "fengyun-1c-debris", "lat": 15.34494522544043, "lon": 117.30068697794677, "alt_km": 805.1680514915415, "timestamp": "2025-12-24T20:42:21.304597+00:00", "meta": {"OBJECT_NAME": "FENGYUN 1C DEB", "OBJECT_ID": "1999-025AQB", "EPOCH": "2025-12-23T13:57:32.736960", "MEAN_MOTION": 14.02766516, "ECCENTRICITY": 0.01182483, "INCLINATION": 98.6363, "RA_OF_ASC_NODE": 293.6951, "ARG_OF_PERICENTER": 145.9003, "MEAN_ANOMALY": 31.9487, "EPHEMERIS_TYPE": 0, "CLASSIFICATION_TYPE": "U", "NORAD_CAT_ID": 30669, "ELEMENT_SET_NO": 999, "REV_AT_EPOCH": 95605, "BSTAR": 0.0013930698, "MEAN_MOTION_DOT": 2.251e-05, "MEAN_MOTION_DDOT": 0}, "tle": {"line1": "1 30669U 99025AQB 25357.58162890  .00002251  00000+0  13931-2 0  9998", "line2": "2 30669  98.6363 293.6951 0118248 145.9003  31.9487 14.02766516956057"}}, "geometry": {"type": "Point", "coordinates": [117.30068697794677, 15.34494522544043]}}, {"type": "Feature", "properties": {"norad_id": 30670, "name": "FENGYUN 1C DEB", "group": "fengyun-1c-debris", "lat": -61.912038172905824, "lon": 59.70952799733691, "alt_km": 850.8539536767576, "timestamp": "2025-12-24T20:42:21.304609+00:00", "meta": {"OBJECT_NAME": "FENGYUN 1C DEB", "OBJECT_ID": "1999-025AQC", "EPOCH": "2025-12-24T02:36:13.702752", "MEAN_MOTION": 14.15821789, "ECCENTRICITY": 0.00394953, "INCLINATION": 98.7091, "RA_OF_ASC_NODE": 42.2811, "ARG_OF_PERICENTER": 37.7084, "MEAN_ANOMALY": 17.3569, "EPHEMERIS_TYPE": 0, "CLASSIFICATION_TYPE": "U", "NORAD_CAT_ID": 30670, "ELEMENT_SET_NO": 999, "REV_AT_EPOCH": 97313, "BSTAR": 0.00010001086, "MEAN_MOTION_DOT": 1.55e-06, "MEAN_MOTION_DDOT": 0}, "tle": {"line1": "1 30670U 99025AQC 25358.10849193  .00000155  00000+0  10001-3 0  9994", "line2": "2 30670  98.7091  42.2811 0039495  37.7084  17.3569 14.15821789973139"}}, "geometry": {"type": "Point", "coordinates": [59.70952799733691, -61.912038172905824]}}, {"type": "Feature", "properties": {"norad_id": 30671, "name": "FENGYUN 1C DEB", "group": "fengyun-1c-debris", "lat": 78.81180558167493, "lon": -60.88636789263444, "alt_km": 910.8267655511054, "timestamp": "2025-12-24T20:42:21.304619+00:00", "meta": {"OBJECT_NAME": "FENGYUN 1C DEB", "OBJECT_ID": "1999-025AQD", "EPOCH": "2025-12-23T03:05:30.395328", "MEAN_MOTION": 13.954953, "ECCENTRICITY": 0.01257432, "INCLINATION": 99.2519, "RA_OF_ASC_NODE": 61.8782, "ARG_OF_PERICENTER": 4.7936, "MEAN_ANOMALY": 23.9198, "EPHEMERIS_TYPE": 0, "CLASSIFICATION_TYPE": "U", "NORAD_CAT_ID": 30671, "ELEMENT_SET_NO": 999, "REV_AT_EPOCH": 95340, "BSTAR": 0.0012360162, "MEAN_MOTION_DOT": 1.748e-05, "MEAN_MOTION_DDOT": 0}, "tle": {"line1": "1 30671U 99025AQD 25357.12882402  .00001748  00000+0  12360-2 0  9994", "line2": "2 30671  99.2519  61.8782 0125743   4.7936  23.9198 13.95495300953409"}}, "geometry": {"type": "Point", "coordinates": [-60.88636789263444, 78.81180558167493]}}, {"type": "Feature", "properties": {"norad_id": 30673, "name": "FENGYUN 1C DEB", "group": "fengyun-1c-debris", "lat": -77.46994895511395, "lon": -177.1615958916366, "alt_km": 922.8791380472376, "timestamp": "2025-12-24T20:42:21.304631+00:00", "meta": {"OBJECT_NAME": "FENGYUN 1C DEB", "OBJECT_ID": "1999-025AQF", "EPOCH": "2025-12-24T02:29:50.180928", "MEAN_MOTION": 14.03457632, "ECCENTRICITY": 0.00528062, "INCLINATION": 98.9177, "RA_OF_ASC_NODE": 47.0436, "ARG_OF_PERICENTER": 111.5252, "MEAN_ANOMALY": 278.1891, "EPHEMERIS_TYPE": 0, "CLASSIFICATION_TYPE": "U", "NORAD_CAT_ID": 30673, "ELEMENT_SET_NO": 999, "REV_AT_EPOCH": 96691, "BSTAR": 2.5807555e-05, "MEAN_MOTION_DOT": -2e-08, "MEAN_MOTION_DDOT": 0}, "tle": {"line1": "1 30673U 99025AQF 25358.10405302 -.00000002  00000+0  25808-4 0  9991", "line2": "2 30673  98.9177  47.0436 0052806 111.5252 278.1891 14.03457632966916"}}, "geometry": {"type": "Point", "coordinates": [-177.1615958916366, -77.46994895511395]}}, {"type": "Feature", "properties": {"norad_id": 30674, "name": "FENGYUN 1C DEB", "group": "fengyun-1c-debris", "lat": -33.66238683464908, "lon": 169.4054006464566, "alt_km": 571.4805289832602, "timestamp": "2025-12-24T20:42:21.304642+00:00", "meta": {"OBJECT_NAME": "FENGYUN 1C DEB", "OBJECT_ID": "1999-025AQG", "EPOCH": "2025-12-23T22:24:20.602656", "MEAN_MOTION": 14.97340366, "ECCENTRICITY": 0.0024902, "INCLINATION": 98.9378, "RA_OF_ASC_NODE": 162.3275, "ARG_OF_PERICENTER": 271.5601, "MEAN_ANOMALY": 88.2764, "EPHEMERIS_TYPE": 0, "CLASSIFICATION_TYPE": "U", "NORAD_CAT_ID": 30674, "ELEMENT_SET_NO": 999, "REV_AT_EPOCH": 97519, "BSTAR": 0.0071059, "MEAN_MOTION_DOT": 0.00083883, "MEAN_MOTION_DDOT": 0}, "tle": {"line1": "1 30674U 99025AQG 25357.93357179  .00083883  00000+0  71059-2 0  9994", "line2": "2 30674  98.9378 162.3275 0024902 271.5601  88.2764 14.97340366975190"}}, "geometry": {"type": "Point", "coordinates": [169.4054006464566, -33.66238683464908]}}, {"type": "Feature", "properties": {"norad_id": 30675, "name": "FENGYUN 1C DEB", "group": "fengyun-1c-debris", "lat": -78.33096905110976, "lon": -150.24583334940064, "alt_km": 830.727883361008, "timestamp": "2025-12-24T20:42:21.304654+00:00", "meta": {"OBJECT_NAME": "FENGYUN 1C DEB", "OBJECT_ID": "1999-025AQH", "EPOCH": "2025-12-24T04:36:06.751584", "MEAN_MOTION": 14.27488791, "ECCENTRICITY": 0.00536763, "INCLINATION": 98.7541, "RA_OF_ASC_NODE": 77.3349, "ARG_OF_PERICENTER": 136.7598, "MEAN_ANOMALY": 278.6897, "EPHEMERIS_TYPE": 0, "CLASSIFICATION_TYPE": "U", "NORAD_CAT_ID": 30675, "ELEMENT_SET_NO": 999, "REV_AT_EPOCH": 97055, "BSTAR": 0.0016993982, "MEAN_MOTION_DOT": 4.196e-05, "MEAN_MOTION_DDOT": 0}, "tle": {"line1": "1 30675U 99025AQH 25358.19174481  .00004196  00000+0  16994-2 0  9994", "line2": "2 30675  98.7541  77.3349 0053676 136.7598 278.6897 14.27488791970550"}}, "geometry": {"type": "Point", "coordinates": [-150.24583334940064, -78.33096905110976]}}]}